HERMES-2                
1 63243U 25052AK  26068.92847372  .00009456  00000+0  34839-3 0  9999
2 63243  97.4004 324.4926 0006340  99.4160 260.7796 15.28021069 54859
STARLINK-34055          
1 63819U 25092R   26068.63813608  .00038075  00000+0  13864-2 0  9998
2 63819  42.9959 173.0806 0001830 290.3213  69.7442 15.27570771 48606
